OBJECT_NAME,OBJECT_ID,EPOCH,MEAN_MOTION,ECCENTRICITY,INCLINATION,RA_OF_ASC_NODE,ARG_OF_PERICENTER,MEAN_ANOMALY,EPHEMERIS_TYPE,CLASSIFICATION_TYPE,NORAD_CAT_ID,ELEMENT_SET_NO,REV_AT_EPOCH,BSTAR,MEAN_MOTION_DOT,MEAN_MOTION_DDOT
SL-12 R/B(2),1985-042D,2026-03-01T20:05:47.225760,14.21979922,.0033622,71.1065,104.3199,140.9818,32.2375,0,U,15772,999,11327,.86093E-4,.144E-5,0
SL-14 R/B,1985-069B,2026-03-01T09:32:59.403264,14.86421611,.0017759,82.5267,32.7296,216.0416,143.9604,0,U,15945,999,17160,.72285E-4,.664E-5,0
SL-16 R/B,1985-097B,2026-03-01T17:38:11.205024,14.16599258,.0009862,71.0037,157.3002,268.9259,202.8079,0,U,16182,999,8610,.57342E-4,.67E-6,0
SL-14 R/B,1986-006B,2026-03-01T15:30:43.212672,14.86802542,.0075251,82.5236,267.3093,299.9988,59.3774,0,U,16496,999,14801,.72478E-4,.705E-5,0
COSMOS 1743,1986-034A,2026-03-01T13:12:47.697984,15.57886448,.0002543,82.5300,82.3698,346.0637,14.0548,0,U,16719,999,17898,.5122E-3,.38346E-3,0
SL-14 R/B,1986-046B,2026-03-01T15:46:34.564800,14.85581121,.0021594,82.4783,87.7737,253.4957,106.3886,0,U,16792,999,12521,.58724E-4,.534E-5,0
SL-14 R/B,1986-055B,2026-03-01T17:33:42.520032,14.85633958,.0018884,82.5216,134.1533,3.3156,117.7522,0,U,16882,999,11818,.57025E-4,.519E-5,0
AJISAI (EGS),1986-061A,2026-03-01T20:49:35.465376,12.44515484,.0011243,50.0081,117.4009,266.8711,262.6883,0,U,16908,999,46702,.66599E-4,-.88E-6,0
COSMOS 1812,1987-003A,2026-03-01T16:54:10.935072,16.18044831,.0006534,82.4733,204.7715,287.6253,72.4320,0,U,17295,999,14319,.80777E-3,.1313129E-1,-.1201E-5
SL-14 R/B,1987-024B,2026-03-01T19:52:48.592416,14.86123236,.0016707,82.5254,100.1544,288.3695,71.5705,0,U,17567,999,8696,.54886E-4,.506E-5,0
COSMOS 1833,1987-027A,2026-03-01T18:57:58.743936,14.13056384,.0024604,70.9232,342.6198,225.4198,134.4915,0,U,17589,999,920,-.44337E-4,-.131E-5,0
SL-16 R/B,1987-027B,2026-03-01T18:53:01.476960,14.17166831,.0003806,71.0021,293.1494,159.1916,200.9364,0,U,17590,999,1422,-.62536E-4,-.174E-5,0
SL-14 R/B,1987-038B,2026-03-01T18:02:44.205792,14.85360975,.0018989,82.5017,304.2855,186.3968,173.7009,0,U,17912,999,7805,.56999E-4,.516E-5,0
COSMOS 1844,1987-041A,2026-03-01T09:49:43.751424,14.14553227,.0029571,70.8991,51.6401,30.4858,329.7975,0,U,17973,999,241,.10941E-4,-.27E-6,0
SL-14 R/B,1987-055B,2026-03-01T19:08:32.383392,14.85617962,.0021773,82.5026,356.4671,42.9294,317.3616,0,U,18153,999,6876,.75726E-4,.682E-5,0
COSMOS 1867,1987-060A,2026-03-01T19:49:57.331200,14.31501523,.001438,65.0120,328.7259,278.1644,81.7810,0,U,18187,999,1881,.27705E-4,-.26E-6,0
SL-14 R/B,1988-001B,2026-03-01T19:00:57.953952,14.85516065,.001659,82.5139,202.7864,264.0266,95.9059,0,U,18749,999,4085,.77139E-4,.691E-5,0
COSMOS 1933,1988-020A,2026-03-01T14:46:57.570240,15.17897279,.0003222,82.5095,258.9022,212.5027,147.6008,0,U,18958,999,4900,.25409E-3,.5179E-4,0
SL-3 R/B,1988-032B,2026-03-01T19:58:06.194496,15.19795493,.0024093,97.5174,44.1116,260.9985,98.8523,0,U,19046,999,5091,.33608E-3,.7181E-4,0
SL-16 R/B,1988-039B,2026-03-01T19:21:33.567264,14.19615049,.0022301,71.0128,85.2180,346.0390,14.0116,0,U,19120,999,95726,.98858E-4,.161E-5,0
COSMOS 1953,1988-050A,2026-03-01T18:27:59.102784,15.28350590,.0012147,82.5114,166.2096,148.1522,212.0454,0,U,19210,999,3657,.38085E-3,.10569E-3,0
SL-8 R/B,1988-053B,2026-03-01T16:07:57.439776,14.38910072,.0021205,74.0471,127.2449,307.7641,170.6435,0,U,19257,999,97544,.982E-4,.277E-5,0
COSMOS 1975,1988-093A,2026-03-01T16:04:38.134848,15.27922171,.0011379,82.5204,125.7347,191.1597,168.9392,0,U,19573,999,1818,.3234E-3,.886E-4,0
SL-14 R/B,1988-093B,2026-03-01T10:55:33.492864,14.85644508,.0022208,82.5289,49.7747,67.1816,47.2516,0,U,19574,999,99981,.75787E-4,.684E-5,0
SL-16 R/B,1988-102B,2026-03-01T17:04:13.304640,14.16149492,.0013464,70.9999,168.2830,13.7096,346.4390,0,U,19650,999,92576,-.52138E-4,-.151E-5,0
INTERCOSMOS 24,1989-080A,2026-03-01T05:22:55.315776,12.59542780,.11869,82.6036,109.9167,312.4888,38.1632,0,U,20261,999,66573,.21821E-3,.736E-5,0
SL-14 R/B,1989-080C,2026-03-01T19:03:12.294720,12.50481556,.1230263,82.5971,178.2535,202.7932,151.3742,0,U,20262,999,65916,.20789E-3,.698E-5,0
DELTA 1 R/B,1989-089B,2026-03-01T13:12:52.305696,14.50655375,.0069941,97.0711,269.2837,147.3275,213.2279,0,U,20323,999,89455,.1159E-3,.435E-5,0
ARIANE 40 R/B,1990-005H,2026-03-01T18:03:39.975264,14.39864180,.0009369,98.3101,121.6499,223.3598,136.6854,0,U,20443,999,89166,.10892E-3,.3E-5,0
DELTA 2 R/B(1),1990-008B,2026-03-01T13:03:02.443392,15.54713167,.0087148,35.6027,228.2657,183.1700,176.8491,0,U,20453,999,92486,.90457E-3,.74143E-3,0
COSMOS 2058,1990-010A,2026-03-01T10:30:41.364864,15.11232471,.000996,82.4663,55.5574,10.7417,349.4024,0,U,20465,999,94099,.28222E-3,.4775E-4,0
